HULIANWANG DIGUI-55     
1 65112U 25168G   26159.24823983 -.00000078  00000+0  10046-3 0  9998
2 65112  50.0007 357.5666 0012192  67.8055 292.4110 13.29319836 41507
HULIANWANG DIGUI-56     
1 65113U 25168H   26159.16477391 -.00000078  00000+0  99376-4 0  9992
2 65113  49.9999 357.7716 0012150  87.0663 273.1599 13.29319222 41490
HULIANWANG DIGUI-57     
1 65114U 25168J   26159.29858782 -.00000073  00000+0  11058-3 0  9999
2 65114  50.0027 357.2215 0009872  79.1178 281.0805 13.29323363 41528
QPS-SAR-12 (KUSHINADA-I)
1 65116U 25169A   26158.45543012  .00005294  00000+0  42439-3 0  9992
2 65116  42.0116  69.5730 0006547 162.1940 197.9116 15.00765741 45953
GEESAT-4 01             
1 65119U 25170A   26159.27563851  .00001573  00000+0  21426-3 0  9990
2 65119  49.9875 215.7913 0010132  13.7096 346.4116 14.83949742 45114
GEESAT-4 02             
1 65120U 25170B   26159.26468042  .00001464  00000+0  20132-3 0  9999
2 65120  49.9848 215.6522 0009399  52.3617 307.8173 14.83947416 45134
GEESAT-4 03             
1 65121U 25170C   26159.23031803  .00001540  00000+0  20974-3 0  9997
2 65121  49.9917 215.6314 0020310  26.1503 334.0457 14.84031169 45104
GEESAT-4 04             
1 65122U 25170D   26159.23945710  .00001594  00000+0  22525-3 0  9992
2 65122  49.9688 169.1365 0030358 278.6689  81.0809 14.82104141 45728
GEESAT-4 05             
1 65123U 25170E   26159.27305375  .00001493  00000+0  21348-3 0  9994
2 65123  49.9933 169.7880 0008361 286.9761  73.0260 14.82108079 45728
GEESAT-4 06             
1 65124U 25170F   26159.25397221  .00001492  00000+0  20435-3 0  9999
2 65124  49.9833 215.5380 0018629   4.9208 355.1910 14.83978195 45108
GEESAT-4 07             
1 65125U 25170G   26159.24303491  .00001513  00000+0  20678-3 0  9998
2 65125  49.9913 215.7074 0017870  18.1627 341.9946 14.83996544 45109
GEESAT-4 08             
1 65126U 25170H   26159.28913161  .00001603  00000+0  22696-3 0  9996
2 65126  49.9643 168.5250 0021260 307.1671  52.7324 14.82087554 45736
GEESAT-4 09             
1 65127U 25170J   26159.24699067  .00001462  00000+0  21307-3 0  9990
2 65127  49.9916 245.2432 0021909 355.7651   4.3097 14.81354593 44673
GEESAT-4 10             
1 65128U 25170K   26159.25807545  .00001486  00000+0  21207-3 0  9999
2 65128  49.9766 168.6802 0025351 256.9938 102.8168 14.82136218 45735
GEESAT-4 11             
1 65129U 25170L   26159.28666440  .00001541  00000+0  21029-3 0  9994
2 65129  49.9831 215.0359 0006646  55.1870 304.9693 14.83961878 45112
KUIPER-00081            
1 65132U 25171A   26159.14441496  .00004051  00000+0  55999-3 0  9998
2 65132  51.8996 108.0832 0000731  79.4100 280.6944 14.79939534 46435
KUIPER-00088            
1 65133U 25171B   26159.12554072  .00003957  00000+0  54778-3 0  9990
2 65133  51.8978 125.6696 0000706  62.0982 298.0052 14.79933590 46188
KUIPER-00095            
1 65134U 25171C   26159.14711420  .00004106  00000+0  56720-3 0  9991
2 65134  51.8980 105.6282 0000633  88.9778 271.1257 14.79935999 46465
KUIPER-00096            
1 65135U 25171D   26159.16739759  .00001403  00000+0  21306-3 0  9998
2 65135  51.8976 117.9840 0000693  76.8414 283.2626 14.79930235 46299
KUIPER-00097            
1 65136U 25171E   26159.16471916  .00000321  00000+0  71100-4 0  9993
2 65136  51.9010 120.6438 0000681  65.6232 294.4801 14.79927325 46245
KUIPER-00098            
1 65137U 25171F   26159.16200485 -.00000003  00000+0  28674-4 0  9991
2 65137  51.8987 123.0240 0000741  66.7601 293.3439 14.79926352 45563
KUIPER-00099            
1 65138U 25171G   26159.13903213  .00001169  00000+0  18237-3 0  9994
2 65138  51.9015 113.1249 0000870  75.9174 284.1885 14.79929918 46358
KUIPER-00100            
1 65139U 25171H   26159.10795587  .00000137  00000+0  47014-4 0  9995
2 65139  51.9010 110.7338 0000732  76.4908 283.6136 14.79928719 46388
KUIPER-00102            
1 65140U 25171J   26159.17278436  .00003283  00000+0  45941-3 0  9994
2 65140  51.8972 112.9460 0000689  84.8355 275.2686 14.79933768 46350
KUIPER-00103            
1 65141U 25171K   26159.18768010  .00000721  00000+0  12361-3 0  9992
2 65141  51.8976 130.3776 0000732  70.4402 289.6639 14.79930009 46118
KUIPER-00104            
1 65142U 25171L   26159.13362604 -.00000303  00000+0 -10682-4 0  9990
2 65142  51.9003 118.1049 0000670  62.5571 297.5459 14.79925398 46289
KUIPER-00105            
1 65143U 25171M   26159.15931514 -.00000296  00000+0 -98680-5 0  9991
2 65143  51.8985 125.5992 0000891  87.5288 272.5776 14.79927590 46184
KUIPER-00106            
1 65144U 25171N   26159.25004630  .00021721  00000+0  26644-2 0  9995
2 65144  51.9017 104.0172 0006250  46.2839 150.1496 14.83023127  5715
KUIPER-00107            
1 65145U 25171P   26159.11088068  .00004104  00000+0  56733-3 0  9997
2 65145  51.8996 108.2552 0000548  87.8475 272.2551 14.79910283 46424
