OBJECT_NAME,OBJECT_ID,EPOCH,MEAN_MOTION,ECCENTRICITY,INCLINATION,RA_OF_ASC_NODE,ARG_OF_PERICENTER,MEAN_ANOMALY,EPHEMERIS_TYPE,CLASSIFICATION_TYPE,NORAD_CAT_ID,ELEMENT_SET_NO,REV_AT_EPOCH,BSTAR,MEAN_MOTION_DOT,MEAN_MOTION_DDOT
HULIANWANG DIGUI-55,2025-168G,2026-06-08T05:57:27.921312,13.29319836,0.00121928,50.0007,357.5666,67.8055,292.411,0,U,65112,999,4150,0.00010045990999999999,-7.799999999999999e-07,0.0
HULIANWANG DIGUI-56,2025-168H,2026-06-08T03:57:16.465824,13.29319222,0.00121502,49.9999,357.7716,87.0663,273.1599,0,U,65113,999,4149,9.9375603e-05,-7.799999999999999e-07,0.0
HULIANWANG DIGUI-57,2025-168J,2026-06-08T07:09:57.987648,13.29323363,0.00098727,50.0027,357.2215,79.1178,281.0805,0,U,65114,999,4152,0.00011058245,-7.3e-07,0.0
QPS-SAR-12 (KUSHINADA-I),2025-169A,2026-06-07T10:55:49.162368,15.00765741,0.00065478,42.0116,69.573,162.194,197.9116,0,U,65116,999,4595,0.00042439094999999997,5.294e-05,0.0
GEESAT-4 01,2025-170A,2026-06-08T06:36:55.167264,14.83949742,0.00101325,49.9875,215.7913,13.7096,346.4116,0,U,65119,999,4511,0.00021426397,1.573e-05,0.0
GEESAT-4 02,2025-170B,2026-06-08T06:21:08.388288,14.83947416,0.0009399300000000001,49.9848,215.6522,52.3617,307.8173,0,U,65120,999,4513,0.0002013164,1.464e-05,0.0
GEESAT-4 03,2025-170C,2026-06-08T05:31:39.477792,14.84031169,0.00203106,49.9917,215.6314,26.1503,334.0457,0,U,65121,999,4510,0.00020973541999999999,1.54e-05,0.0
GEESAT-4 04,2025-170D,2026-06-08T05:44:49.093440,14.82104141,0.00303588,49.9688,169.1365,278.6689,81.0809,0,U,65122,999,4572,0.00022525382999999998,1.594e-05,0.0
GEESAT-4 05,2025-170E,2026-06-08T06:33:11.844000,14.82108079,0.0008361600000000001,49.9933,169.788,286.9761,73.026,0,U,65123,999,4572,0.00021347718,1.493e-05,0.0
GEESAT-4 06,2025-170F,2026-06-08T06:05:43.198944,14.83978195,0.00186293,49.9833,215.538,4.9208,355.191,0,U,65124,999,4510,0.00020434575999999998,1.4920000000000001e-05,0.0
GEESAT-4 07,2025-170G,2026-06-08T05:49:58.216224,14.83996544,0.00178707,49.9913,215.7074,18.1627,341.9946,0,U,65125,999,4510,0.0002067763,1.513e-05,0.0
GEESAT-4 08,2025-170H,2026-06-08T06:56:20.971104,14.82087554,0.00212603,49.9643,168.525,307.1671,52.7324,0,U,65126,999,4573,0.00022696214,1.603e-05,0.0
GEESAT-4 09,2025-170J,2026-06-08T05:55:39.993888,14.81354593,0.00219094,49.9916,245.2432,355.7651,4.3097,0,U,65127,999,4467,0.00021307282,1.462e-05,0.0
GEESAT-4 10,2025-170K,2026-06-08T06:11:37.718880,14.82136218,0.00253512,49.9766,168.6802,256.9938,102.8168,0,U,65128,999,4573,0.00021206732,1.4860000000000002e-05,0.0
GEESAT-4 11,2025-170L,2026-06-08T06:52:47.804160,14.83961878,0.00066461,49.9831,215.0359,55.187,304.9693,0,U,65129,999,4511,0.00021029477999999998,1.541e-05,0.0
KUIPER-00081,2025-171A,2026-06-08T03:27:57.452544,14.79939534,7.314000000000001e-05,51.8996,108.0832,79.41,280.6944,0,U,65132,999,4643,0.00055998754,4.0510000000000003e-05,0.0
KUIPER-00088,2025-171B,2026-06-08T03:00:46.718208,14.799335899999999,7.064e-05,51.8978,125.6696,62.0982,298.0052,0,U,65133,999,4618,0.00054777979,3.957e-05,0.0
KUIPER-00095,2025-171C,2026-06-08T03:31:50.666880,14.79935999,6.333e-05,51.898,105.6282,88.9778,271.1257,0,U,65134,999,4646,0.00056719757,4.106e-05,0.0
KUIPER-00096,2025-171D,2026-06-08T04:01:03.151776,14.79930235,6.933e-05,51.8976,117.984,76.8414,283.2626,0,U,65135,999,4629,0.00021305851999999997,1.4030000000000001e-05,0.0
KUIPER-00097,2025-171E,2026-06-08T03:57:11.735424,14.79927325,6.818e-05,51.901,120.6438,65.6232,294.4801,0,U,65136,999,4624,7.1099526e-05,3.2099999999999998e-06,0.0
KUIPER-00098,2025-171F,2026-06-08T03:53:17.219040,14.79926352,7.413000000000001e-05,51.8987,123.024,66.7601,293.3439,0,U,65137,999,4556,2.8673737e-05,-3.0000000000000004e-08,0.0
KUIPER-00099,2025-171G,2026-06-08T03:20:12.376032,14.79929918,8.702e-05,51.9015,113.1249,75.9174,284.1885,0,U,65138,999,4635,0.00018237496999999999,1.1690000000000002e-05,0.0
KUIPER-00100,2025-171H,2026-06-08T02:35:27.387168,14.79928719,7.327000000000001e-05,51.901,110.7338,76.4908,283.6136,0,U,65139,999,4638,4.7013731e-05,1.37e-06,0.0
KUIPER-00102,2025-171J,2026-06-08T04:08:48.568704,14.79933768,6.890000000000001e-05,51.8972,112.946,84.8355,275.2686,0,U,65140,999,4635,0.00045940600000000004,3.283e-05,0.0
KUIPER-00103,2025-171K,2026-06-08T04:30:15.560640,14.79930009,7.329e-05,51.8976,130.3776,70.4402,289.6639,0,U,65141,999,4611,0.00012360901,7.21e-06,0.0
KUIPER-00104,2025-171L,2026-06-08T03:12:25.289856,14.79925398,6.705e-05,51.9003,118.1049,62.5571,297.5459,0,U,65142,999,4628,-1.0682146e-05,-3.03e-06,0.0
KUIPER-00105,2025-171M,2026-06-08T03:49:24.828096,14.7992759,8.912000000000001e-05,51.8985,125.5992,87.5288,272.5776,0,U,65143,999,4618,-9.867952999999999e-06,-2.96e-06,0.0
KUIPER-00106,2025-171N,2026-06-08T06:00:04.000320,14.83023127,0.00062504,51.9017,104.0172,46.2839,150.1496,0,U,65144,999,571,0.0026643853,0.00021721000000000002,0.0
KUIPER-00107,2025-171P,2026-06-08T02:39:40.090752,14.79910283,5.4850000000000005e-05,51.8996,108.2552,87.8475,272.2551,0,U,65145,999,4642,0.00056733346,4.104000000000001e-05,0.0
